KUIPER-00095            
1 65134U 25171C   25259.18983567  .00049050  00000+0  13847-2 0  9997
2 65134  51.8732 232.7413 0002605 294.1283  65.9430 15.35888690  6737
KUIPER-00096            
1 65135U 25171D   25259.31402506  .00060635  00000+0  16887-2 0  9991
2 65135  51.8733 232.0732 0003963 266.2636  93.7897 15.36214729  6751
KUIPER-00097            
1 65136U 25171E   25259.51686600  .00041644  00000+0  11836-2 0  9991
2 65136  51.8728 231.1900 0003578 283.9232  76.1355 15.35749920  6774
KUIPER-00098            
1 65137U 25171F   25259.30609451  .00036406  00000+0  10147-2 0  9992
2 65137  51.8783 232.0285 0005073 248.0226 112.0221 15.36416381  6099
KUIPER-00099            
1 65138U 25171G   25259.56868980  .00037346  00000+0  10410-2 0  9992
2 65138  51.8753 230.7892 0004390 260.9844  99.0645 15.36404443  6782
KUIPER-00100            
1 65139U 25171H   25259.31334229  .00063328  00000+0  17659-2 0  9991
2 65139  51.8735 232.0700 0003998 265.5314  94.5216 15.36156187  6741
KUIPER-00102            
1 65140U 25171J   25259.32056268  .00055423  00000+0  15654-2 0  9998
2 65140  51.8743 232.1147 0004171 279.7262  80.3253 15.35815894  6741
KUIPER-00103            
1 65141U 25171K   25259.57578989  .00022915  00000+0  65099-3 0  9994
2 65141  51.8727 230.8261 0003081 278.1512  81.9125 15.36076380  6785
